NORAD_CAT_ID,OBJECT_NAME,OBJECT_TYPE,EPOCH,MEAN_MOTION,ECCENTRICITY,INCLINATION,RA_OF_ASC_NODE,ARG_OF_PERICENTER,MEAN_ANOMALY,BSTAR,MEAN_MOTION_DOT,MEAN_MOTION_DDOT,TLE_LINE0,TLE_LINE1,TLE_LINE2,SEMIMAJOR_AXIS,PERIOD,APOGEE,PERIGEE,DECAYED
52636.0,STARLINK-3967,PAYLOAD,2023-09-06 17:31:51,15.08837139,0.0001139,53.2171,56.5325,85.1582,274.954,9.0175e-05,1.147e-05,0.0,0 STARLINK-3967,1 52636U 22052AQ  23249.73045947  .00001147  00000-0  90175-4 0  9991,2 52636  53.2171  56.5325 0001139  85.1582 274.9540 15.08837139 73244,6917.889,95.438,540.542,538.966,0.0
52636.0,STARLINK-3967,PAYLOAD,2023-09-06 20:42:37,15.0884412,0.0001141,53.2167,55.9375,94.269,265.8433,0.00013649,1.885e-05,0.0,0 STARLINK-3967,1 52636U 22052AQ  23249.86293345  .00001885  00000-0  13649-3 0  9991,2 52636  53.2167  55.9375 0001141  94.2690 265.8433 15.08844120 72888,6917.868,95.437,540.522,538.943,0.0
52636.0,STARLINK-3967,PAYLOAD,2023-09-07 11:01:06,15.0884213,0.0001408,53.2164,53.2606,90.2905,269.8249,2.9943e-05,1.89e-06,0.0,0 STARLINK-3967,1 52636U 22052AQ  23250.45909736  .00000189  00000-0  29943-4 0  9997,2 52636  53.2164  53.2606 0001408  90.2905 269.8249 15.08842130 73355,6917.874,95.437,540.713,538.765,0.0
52636.0,STARLINK-3967,PAYLOAD,2023-09-07 12:36:29,15.08840189,0.0001375,53.2166,52.9632,89.2734,270.8416,1.2758e-05,-8.5e-07,0.0,0 STARLINK-3967,1 52636U 22052AQ  23250.52533877 -.00000085  00000-0  12758-4 0  9996,2 52636  53.2166  52.9632 0001375  89.2734 270.8416 15.08840189 72981,6917.88,95.438,540.696,538.794,0.0
52636.0,STARLINK-3967,PAYLOAD,2023-09-08 14:02:39,15.08846089,0.0001511,53.2165,48.2041,94.9431,265.1734,-3.7195e-05,-8.8e-06,0.0,0 STARLINK-3967,1 52636U 22052AQ  23251.58517540 -.00000880  00000-0 -37195-4 0  9998,2 52636  53.2165  48.2041 0001511  94.9431 265.1734 15.08846089 73145,6917.862,95.437,540.772,538.681,0.0
52636.0,STARLINK-3967,PAYLOAD,2023-09-08 17:13:25,15.08841232,0.00012,53.2176,47.6109,91.6106,268.5023,2.9332e-05,1.79e-06,0.0,0 STARLINK-3967,1 52636U 22052AQ  23251.71765709  .00000179  00000-0  29332-4 0  9998,2 52636  53.2176  47.6109 0001200  91.6106 268.5023 15.08841232 73540,6917.877,95.437,540.572,538.911,0.0
52636.0,STARLINK-3967,PAYLOAD,2023-09-09 13:53:26,15.08839501,0.0001197,53.2176,43.7451,96.4228,263.69,6.3106e-05,7.17e-06,0.0,0 STARLINK-3967,1 52636U 22052AQ  23252.57877829  .00000717  00000-0  63106-4 0  9995,2 52636  53.2176  43.7451 0001197  96.4228 263.6900 15.08839501 73298,6917.882,95.438,540.575,538.919,0.0
52636.0,STARLINK-3967,PAYLOAD,2023-09-10 10:33:27,15.08836069,0.000118,53.2173,39.8805,94.8408,265.2719,4.0047e-05,3.5e-06,0.0,0 STARLINK-3967,1 52636U 22052AQ  23253.43990216  .00000350  00000-0  40047-4 0  9999,2 52636  53.2173  39.8805 0001180  94.8408 265.2719 15.08836069 73807,6917.892,95.438,540.574,538.941,0.0
52636.0,STARLINK-3967,PAYLOAD,2023-09-10 13:44:13,15.08839216,0.0001198,53.2179,39.2853,88.8098,271.3031,6.0235e-05,6.71e-06,0.0,0 STARLINK-3967,1 52636U 22052AQ  23253.57238016  .00000671  00000-0  60235-4 0  9994,2 52636  53.2179  39.2853 0001198  88.8098 271.3031 15.08839216 73449,6917.883,95.438,540.577,538.919,0.0
52636.0,STARLINK-3967,PAYLOAD,2023-09-10 16:54:59,15.08843764,0.0001169,53.2175,38.6913,93.8,266.3126,8.8444e-05,1.12e-05,0.0,0 STARLINK-3967,1 52636U 22052AQ  23253.70485653  .00001120  00000-0  88444-4 0  9992,2 52636  53.2175  38.6913 0001169  93.8000 266.3126 15.08843764 73848,6917.869,95.437,540.543,538.925,0.0
52636.0,STARLINK-3967,PAYLOAD,2023-09-11 13:35:01,15.08836866,0.0001193,53.2173,34.826,98.8545,261.2582,1.1405e-05,-1.06e-06,0.0,0 STARLINK-3967,1 52636U 22052AQ  23254.56598441 -.00000106  00000-0  11405-4 0  9994,2 52636  53.2173  34.8260 0001193  98.8545 261.2582 15.08836866 73592,6917.89,95.438,540.58,538.93,0.0
52636.0,STARLINK-3967,PAYLOAD,2023-09-11 16:45:46,15.08841905,0.0001153,53.2178,34.231,91.5915,268.5209,4.9159e-05,4.95e-06,0.0,0 STARLINK-3967,1 52636U 22052AQ  23254.69846043  .00000495  00000-0  49159-4 0  9999,2 52636  53.2178  34.2310 0001153  91.5915 268.5209 15.08841905 73994,6917.875,95.437,540.537,538.942,0.0
52636.0,STARLINK-3967,PAYLOAD,2023-09-12 08:39:38,15.08825306,0.0001218,53.2185,31.2573,93.0877,267.0254,0.00019777,2.86e-05,0.0,0 STARLINK-3967,1 52636U 22052AQ  23255.36086781  .00002860  00000-0  19777-3 0  9999,2 52636  53.2185  31.2573 0001218  93.0877 267.0254 15.08825306 74099,6917.925,95.438,540.633,538.948,0.0
52636.0,STARLINK-3967,PAYLOAD,2023-09-12 13:25:47,15.08841598,0.0001243,53.2184,30.3649,91.6983,268.4151,7.94e-05,9.76e-06,0.0,0 STARLINK-3967,1 52636U 22052AQ  23255.55958085  .00000976  00000-0  79400-4 0  9991,2 52636  53.2184  30.3649 0001243  91.6983 268.4151 15.08841598 73745,6917.876,95.437,540.6,538.881,0.0
52636.0,STARLINK-3967,PAYLOAD,2023-09-12 16:36:33,15.08847519,0.0001241,53.218,29.7703,87.3826,272.7308,7.467e-05,9.01e-06,0.0,0 STARLINK-3967,1 52636U 22052AQ  23255.69205706  .00000901  00000-0  74670-4 0  9993,2 52636  53.2180  29.7703 0001241  87.3826 272.7308 15.08847519 74146,6917.857,95.437,540.581,538.864,0.0
52636.0,STARLINK-3967,PAYLOAD,2023-09-13 13:16:34,15.08848497,0.0001089,53.2179,25.9059,90.3421,269.7696,7.8111e-05,9.56e-06,0.0,0 STARLINK-3967,1 52636U 22052AQ  23256.55317405  .00000956  00000-0  78111-4 0  9993,2 52636  53.2179  25.9059 0001089  90.3421 269.7696 15.08848497 73894,6917.854,95.437,540.473,538.966,0.0
52636.0,STARLINK-3967,PAYLOAD,2023-09-13 16:27:19,15.08858189,0.0001223,53.2189,25.3092,86.1873,273.9259,0.00017652,2.524e-05,0.0,0 STARLINK-3967,1 52636U 22052AQ  23256.68564435  .00002524  00000-0  17652-3 0  9999,2 52636  53.2189  25.3092 0001223  86.1873 273.9259 15.08858189 74296,6917.825,95.436,540.536,538.844,0.0
52636.0,STARLINK-3967,PAYLOAD,2023-09-14 13:07:23,15.08827605,0.0001235,53.2182,21.4454,99.2788,260.8344,-6.9525e-05,-1.394e-05,0.0,0 STARLINK-3967,1 52636U 22052AQ  23257.54679462 -.00001394  00000-0 -69525-4 0  9995,2 52636  53.2182  21.4454 0001235  99.2788 260.8344 15.08827605 74043,6917.918,95.438,540.638,538.929,0.0
52636.0,STARLINK-3967,PAYLOAD,2023-09-14 14:42:46,15.08827813,0.0001253,53.2183,21.1477,86.5924,273.5211,-5.9192e-05,-1.229e-05,0.0,0 STARLINK-3967,1 52636U 22052AQ  23257.61303569 -.00001229  00000-0 -59192-4 0  9991,2 52636  53.2183  21.1477 0001253  86.5924 273.5211 15.08827813 74435,6917.918,95.438,540.649,538.916,0.0
52636.0,STARLINK-3967,PAYLOAD,2023-09-15 08:12:00,15.08839348,0.0001047,53.2184,17.8757,73.5216,286.5891,4.7802e-06,-2.12e-06,0.0,0 STARLINK-3967,1 52636U 22052AQ  23258.34166934 -.00000212  00000-0  47802-5 0  9991,2 52636  53.2184  17.8757 0001047  73.5216 286.5891 15.08839348 74546,6917.882,95.438,540.472,539.023,0.0
52636.0,STARLINK-3967,PAYLOAD,2023-09-15 12:58:08,15.08851964,0.0001402,53.2191,16.9846,79.1895,280.9255,0.00010879,1.444e-05,0.0,0 STARLINK-3967,1 52636U 22052AQ  23258.54037734  .00001444  00000-0  10879-3 0  9997,2 52636  53.2191  16.9846 0001402  79.1895 280.9255 15.08851964 74194,6917.844,95.437,540.679,538.739,0.0
52636.0,STARLINK-3967,PAYLOAD,2023-09-15 14:33:31,15.08858044,0.0001382,53.219,16.685,84.2329,275.8821,4.8657e-05,4.87e-06,0.0,0 STARLINK-3967,1 52636U 22052AQ  23258.60661336  .00000487  00000-0  48657-4 0  9997,2 52636  53.2190  16.6850 0001382  84.2329 275.8821 15.08858044 74582,6917.825,95.436,540.646,538.734,0.0
52636.0,STARLINK-3967,PAYLOAD,2023-09-16 08:02:47,15.08837405,8.12e-05,53.2188,13.4127,79.8881,280.2202,0.00012451,1.694e-05,0.0,0 STARLINK-3967,1 52636U 22052AQ  23259.33526719  .00001694  00000-0  12451-3 0  9996,2 52636  53.2188  13.4127 0000812  79.8881 280.2202 15.08837405 74694,6917.888,95.438,540.315,539.192,0.0
52636.0,STARLINK-3967,PAYLOAD,2023-09-16 12:48:56,15.08841325,0.0001203,53.2193,12.5207,49.6721,310.4377,0.00017412,2.484e-05,0.0,0 STARLINK-3967,1 52636U 22052AQ  23259.53398370  .00002484  00000-0  17412-3 0  9998,2 52636  53.2193  12.5207 0001203  49.6721 310.4377 15.08841325 74349,6917.876,95.437,540.574,538.909,0.0
52636.0,STARLINK-3967,PAYLOAD,2023-09-17 12:39:43,15.08849913,0.0001232,53.2195,8.0618,87.0634,273.0499,0.00011178,1.492e-05,0.0,0 STARLINK-3967,1 52636U 22052AQ  23260.52758219  .00001492  00000-0  11178-3 0  9992,2 52636  53.2195   8.0618 0001232  87.0634 273.0499 15.08849913 74494,6917.85,95.437,540.567,538.863,0.0
52636.0,STARLINK-3967,PAYLOAD,2023-09-17 14:15:06,15.08856174,0.0001331,53.2195,7.7648,88.9368,271.1777,4.4955e-05,4.28e-06,0.0,0 STARLINK-3967,1 52636U 22052AQ  23260.59381965  .00000428  00000-0  44955-4 0  9997,2 52636  53.2195   7.7648 0001331  88.9368 271.1777 15.08856174 74885,6917.831,95.437,540.617,538.775,0.0
52636.0,STARLINK-3967,PAYLOAD,2023-09-17 23:47:25,15.0884714,0.0001482,53.2199,5.9818,66.7386,293.3762,-3.9924e-05,-9.23e-06,0.0,0 STARLINK-3967,1 52636U 22052AQ  23260.99126617 -.00000923  00000-0 -39924-4 0  9994,2 52636  53.2199   5.9818 0001482  66.7386 293.3762 15.08847140 74949,6917.859,95.437,540.749,538.698,0.0
52636.0,STARLINK-3967,PAYLOAD,2023-09-18 10:55:07,15.08836353,0.0001495,53.2202,3.9024,92.4014,267.7149,1.8261e-05,3e-08,0.0,0 STARLINK-3967,1 52636U 22052AQ  23261.45495260  .00000003  00000-0  18261-4 0  9997,2 52636  53.2202   3.9024 0001495  92.4014 267.7149 15.08836353 75016,6917.892,95.438,540.791,538.722,0.0
52636.0,STARLINK-3967,PAYLOAD,2023-09-18 14:05:53,15.08845302,0.0001426,53.2195,3.3041,92.0233,268.0923,5.9859e-05,6.65e-06,0.0,0 STARLINK-3967,1 52636U 22052AQ  23261.58742547  .00000665  00000-0  59859-4 0  9996,2 52636  53.2195   3.3041 0001426  92.0233 268.0923 15.08845302 74650,6917.864,95.437,540.716,538.743,0.0
52636.0,STARLINK-3967,PAYLOAD,2023-09-19 15:32:02,15.08864014,0.000149,53.2194,358.5482,90.7846,269.3316,0.00032227,4.848e-05,0.0,0 STARLINK-3967,1 52636U 22052AQ  23262.64725272  .00004848  00000-0  32227-3 0  9996,2 52636  53.2194 358.5482 0001490  90.7846 269.3316 15.08864014 75190,6917.807,95.436,540.703,538.641,0.0
